OBJECT_NAME,OBJECT_ID,EPOCH,MEAN_MOTION,ECCENTRICITY,INCLINATION,RA_OF_ASC_NODE,ARG_OF_PERICENTER,MEAN_ANOMALY,EPHEMERIS_TYPE,CLASSIFICATION_TYPE,NORAD_CAT_ID,ELEMENT_SET_NO,REV_AT_EPOCH,BSTAR,MEAN_MOTION_DOT,MEAN_MOTION_DDOT
IRIDIUM 138,2017-083B,2026-06-03T23:46:35.073408,14.34217287,.00025401,86.3952,327.2239,89.0253,271.1233,0,U,43071,999,44224,.33684327E-4,.114E-5,0
IRIDIUM 116,2017-083C,2026-06-03T12:58:06.840480,14.34218702,.00018632,86.3955,327.7086,92.8013,267.3396,0,U,43072,999,44221,.13424294E-4,.57E-6,0
IRIDIUM 130,2017-083D,2026-06-03T23:55:43.089600,14.34218950,.00019879,86.3965,327.7920,85.8706,274.2717,0,U,43073,999,44222,.70152116E-4,.216E-5,0
IRIDIUM 151,2017-083E,2026-06-03T23:19:11.104320,14.34217394,.00021742,86.3961,327.5863,92.3398,267.8046,0,U,43074,999,44224,.28654993E-4,.1E-5,0
IRIDIUM 134,2017-083F,2026-06-04T00:13:59.189376,14.34218266,.0002095,86.3960,327.5780,88.3106,271.8330,0,U,43075,999,44221,.30874721E-4,.106E-5,0
IRIDIUM 137,2017-083G,2026-06-03T12:48:58.894272,14.34218432,.00018965,86.3960,327.8694,101.3050,258.8359,0,U,43076,999,44221,.23380222E-4,.85E-6,0
IRIDIUM 141,2017-083H,2026-06-04T13:46:51.136608,14.34217346,.0002206,86.3956,327.2655,91.0432,269.1017,0,U,43077,999,44236,-.24344E-4,-.48E-6,0
IRIDIUM 153,2017-083J,2026-06-03T11:30:59.465088,14.34217679,.00023749,86.3951,296.2035,90.5632,269.5836,0,U,43078,999,44331,.4444856E-5,.32E-6,0
IRIDIUM 131,2017-083K,2026-06-04T00:04:51.103200,14.34218141,.00021775,86.3960,327.6891,92.4012,267.7433,0,U,43079,999,44221,.5016434E-5,.34E-6,0
IRIDIUM 144,2018-030A,2026-06-03T11:40:07.199616,14.34218560,.00020404,86.3955,296.1314,93.0281,267.1149,0,U,43249,999,42817,.32578566E-4,.111E-5,0
IRIDIUM 149,2018-030B,2026-06-03T11:49:15.454272,14.34217377,.0002153,86.3943,296.0950,93.2178,266.9264,0,U,43250,999,42819,-.55178E-5,.4E-7,0
IRIDIUM 157,2018-030C,2026-06-03T10:36:11.413728,14.34217474,.00020582,86.3944,296.1692,92.7250,267.4181,0,U,43251,999,42816,-.5507641E-5,.4E-7,0
IRIDIUM 140,2018-030D,2026-06-03T22:46:51.416544,14.34217609,.00021464,86.3949,295.9690,91.6391,268.5051,0,U,43252,999,42829,.2735192E-5,.27E-6,0
IRIDIUM 145,2018-030E,2026-06-03T10:45:19.169856,14.34218485,.00018795,86.3951,296.1509,94.4998,265.6412,0,U,43253,999,42815,.16917213E-4,.67E-6,0
IRIDIUM 146,2018-030F,2026-06-02T22:34:39.384768,14.34217534,.00020501,86.3948,296.3756,93.0477,267.0954,0,U,43254,999,42809,-.5310703E-5,.5E-7,0
IRIDIUM 148,2018-030G,2026-06-03T22:55:59.321280,14.34217937,.00021319,86.3950,295.9940,96.0501,264.0938,0,U,43255,999,42827,.709401E-5,.4E-6,0
IRIDIUM 142,2018-030H,2026-06-03T22:10:19.358688,14.34217489,.00019884,86.3945,295.8962,95.2585,264.8838,0,U,43256,999,42823,.1676364E-5,.24E-6,0
IRIDIUM 150,2018-030J,2026-06-03T11:21:51.420384,14.34217435,.00020432,86.3945,296.2012,91.6251,268.5179,0,U,43257,999,42819,-.5493968E-5,.4E-7,0
IRIDIUM 143,2018-030K,2026-06-03T10:54:27.405504,14.34217324,.00019371,86.3948,296.3013,92.4006,267.7412,0,U,43258,999,42812,-.9343857E-5,-.6E-7,0
IRIDIUM 161,2018-047C,2026-06-03T07:16:04.141344,14.43281947,.00024701,86.4479,94.2760,89.9942,270.1541,0,U,43478,999,42313,.10576866E-3,.376E-5,0
IRIDIUM 152,2018-047D,2026-06-04T06:20:46.313088,14.34217708,.000238,86.3955,93.7351,85.4327,274.7141,0,U,43479,999,42063,.10359E-4,.49E-6,0
IRIDIUM 147,2018-047E,2026-06-04T04:49:26.080320,14.34217961,.0002157,86.3957,93.7665,84.2942,275.8500,0,U,43480,999,42062,.47952E-4,.154E-5,0
IRIDIUM 110,2018-047F,2026-06-04T04:58:34.307328,14.34217902,.0002566,86.3957,93.8552,89.2196,270.9294,0,U,43481,999,42061,.13075E-4,.56E-6,0
IRIDIUM 162,2018-047G,2026-06-04T06:24:41.743584,14.43274258,.0002386,86.4476,93.7638,82.8453,277.3019,0,U,43482,999,42326,.12721E-3,.448E-5,0
IRIDIUM 160,2018-061A,2026-06-04T05:21:02.496384,14.34217929,.0002263,86.3969,62.2172,87.3364,272.8090,0,U,43569,999,41151,.28706E-4,.1E-5,0
IRIDIUM 166,2018-061B,2026-06-04T16:00:22.465152,14.34217808,.0002094,86.3967,61.9825,84.9410,275.2024,0,U,43570,999,41160,.83634E-5,.43E-6,0
IRIDIUM 158,2018-061C,2026-06-04T05:11:54.353184,14.34216530,.0002331,86.3967,62.1806,83.4952,276.6510,0,U,43571,999,41150,.17478E-4,.69E-6,0
IRIDIUM 165,2018-061D,2026-06-04T15:51:14.062752,14.34220431,.0002099,86.3969,62.0410,83.7882,276.3552,0,U,43572,999,41159,.10699E-3,.319E-5,0
IRIDIUM 155,2018-061E,2026-06-04T04:53:38.465088,14.34218044,.0002184,86.3967,62.1020,81.0393,279.1050,0,U,43573,999,41149,.28669E-4,.1E-5,0
IRIDIUM 154,2018-061F,2026-06-04T16:09:30.446784,14.34217498,.0002043,86.3969,62.0385,86.2142,273.9287,0,U,43574,999,41161,.29436E-4,.102E-5,0
